NORAD_CAT_ID,OBJECT_NAME,OBJECT_TYPE,EPOCH,MEAN_MOTION,ECCENTRICITY,INCLINATION,RA_OF_ASC_NODE,ARG_OF_PERICENTER,MEAN_ANOMALY,BSTAR,MEAN_MOTION_DOT,MEAN_MOTION_DDOT,TLE_LINE0,TLE_LINE1,TLE_LINE2,SEMIMAJOR_AXIS,PERIOD,APOGEE,PERIGEE,DECAYED
51472.0,STARLINK-3415,PAYLOAD,2022-12-08 22:05:51,15.08833989,0.0003072,53.2167,206.7483,46.142,313.9825,0.00014608,2.037e-05,0.0,0 STARLINK-3415,1 51472U 22010S   22342.92073732  .00002037  00000-0  14608-3 0  9994,2 51472  53.2167 206.7483 0003072  46.1420 313.9825 15.08833989 47662,6917.899,95.438,541.889,537.639,0.0
51472.0,STARLINK-3415,PAYLOAD,2022-12-09 20:21:16,15.088335,0.0002634,53.2171,202.5889,59.0754,301.0497,-8.082e-06,-4.17e-06,0.0,0 STARLINK-3415,1 51472U 22010S   22343.84810472 -.00000417  00000-0 -80820-5 0  9999,2 51472  53.2171 202.5889 0002634  59.0754 301.0497 15.08833500 48301,6917.9,95.438,541.587,537.943,0.0
51472.0,STARLINK-3415,PAYLOAD,2022-12-10 01:07:25,15.08831595,0.0002948,53.2167,201.693,48.507,311.6174,-3.9507e-05,-9.17e-06,0.0,0 STARLINK-3415,1 51472U 22010S   22344.04682829 -.00000917  00000-0 -39507-4 0  9995,2 51472  53.2167 201.6930 0002948  48.5070 311.6174 15.08831595 47833,6917.906,95.438,541.81,537.732,0.0
51472.0,STARLINK-3415,PAYLOAD,2022-12-10 20:12:03,15.08840806,0.0003037,53.2167,198.1238,48.1305,311.9946,3.8089e-05,3.18e-06,0.0,0 STARLINK-3415,1 51472U 22010S   22344.84170442  .00000318  00000-0  38089-4 0  9993,2 51472  53.2167 198.1238 0003037  48.1305 311.9946 15.08840806 47959,6917.878000000002,95.438,541.844,537.6419999999998,0.0
51472.0,STARLINK-3415,PAYLOAD,2022-12-10 23:22:49,15.08841967,0.000297,53.2168,197.5295,50.4486,309.6768,5.6744e-05,6.15e-06,0.0,0 STARLINK-3415,1 51472U 22010S   22344.97418361  .00000615  00000-0  56744-4 0  9990,2 51472  53.2168 197.5295 0002970  50.4486 309.6768 15.08841967 48470,6917.874,95.437,541.794,537.685,0.0
51472.0,STARLINK-3415,PAYLOAD,2022-12-11 20:02:51,15.08825816,0.0003078,53.2169,193.6641,50.5398,309.5866,6.7505e-05,7.86e-06,0.0,0 STARLINK-3415,1 51472U 22010S   22345.83531753  .00000786  00000-0  67505-4 0  9993,2 51472  53.2169 193.6641 0003078  50.5398 309.5866 15.08825816 48604,6917.924,95.438,541.918,537.659,0.0
51472.0,STARLINK-3415,PAYLOAD,2022-12-12 00:49:00,15.08831038,0.0003078999999999,53.2167,192.7714,48.2007,311.9248,0.00010994,1.461e-05,0.0,0 STARLINK-3415,1 51472U 22010S   22346.03403543  .00001461  00000-0  10994-3 0  9991,2 51472  53.2167 192.7714 0003079  48.2007 311.9248 15.08831038 48137,6917.908,95.438,541.903,537.643,0.0
51472.0,STARLINK-3415,PAYLOAD,2022-12-13 07:01:20,15.08835055,0.0002926,53.2169,187.1209,54.5755,305.551,7.1079e-05,8.43e-06,0.0,0 STARLINK-3415,1 51472U 22010S   22347.29259961  .00000843  00000-0  71079-4 0  9998,2 51472  53.2169 187.1209 0002926  54.5755 305.5510 15.08835055 48826,6917.896,95.438,541.785,537.736,0.0
51472.0,STARLINK-3415,PAYLOAD,2022-12-13 19:44:26,15.08832372,0.0003129,53.2168,184.7422,50.9239,309.2031,5.410600000000002e-05,5.72e-06,0.0,0 STARLINK-3415,1 51472U 22010S   22347.82252484  .00000572  00000-0  54106-4 0  9991,2 51472  53.2168 184.7422 0003129  50.9239 309.2031 15.08832372 48400,6917.904,95.438,541.933,537.604,0.0
51472.0,STARLINK-3415,PAYLOAD,2022-12-14 13:13:40,15.08836118,0.0003078999999999,53.2187,181.4705,54.7996,305.3284,8.3518e-05,1.041e-05,0.0,0 STARLINK-3415,1 51472U 22010S   22348.55116492  .00001041  00000-0  83518-4 0  9991,2 51472  53.2187 181.4705 0003079  54.7996 305.3284 15.08836118 49012,6917.892,95.438,541.887,537.627,0.0
51472.0,STARLINK-3415,PAYLOAD,2022-12-14 19:35:13,15.08837676,0.0003081,53.2141,180.2812,52.0229,308.1041,9.5159e-05,1.226e-05,0.0,0 STARLINK-3415,1 51472U 22010S   22348.81612468  .00001226  00000-0  95159-4 0  9993,2 51472  53.2141 180.2812 0003081  52.0229 308.1041 15.08837676 48551,6917.887,95.438,541.884,537.621,0.0
51472.0,STARLINK-3415,PAYLOAD,2022-12-15 13:04:27,15.08843006,0.0003106,53.2159,177.011,52.6627,307.4648,0.00017335,2.472e-05,0.0,0 STARLINK-3415,1 51472U 22010S   22349.54476000  .00002472  00000-0  17335-3 0  9997,2 51472  53.2159 177.0110 0003106  52.6627 307.4648 15.08843006 48662,6917.871,95.437,541.885,537.5880000000002,0.0
51472.0,STARLINK-3415,PAYLOAD,2022-12-15 19:25:59,15.0884697,0.0003106,53.216,175.8214,53.4083,306.7195,0.00020389,2.959e-05,0.0,0 STARLINK-3415,1 51472U 22010S   22349.80971741  .00002959  00000-0  20389-3 0  9991,2 51472  53.2160 175.8214 0003106  53.4083 306.7195 15.08846970 48707,6917.859,95.437,541.873,537.575,0.0
51472.0,STARLINK-3415,PAYLOAD,2022-12-15 22:36:46,15.08848836,0.0003132,53.2152,175.2269,52.9022,307.2256,0.00019555,2.826e-05,0.0,0 STARLINK-3415,1 51472U 22010S   22349.94219924  .00002826  00000-0  19555-3 0  9990,2 51472  53.2152 175.2269 0003132  52.9022 307.2256 15.08848836 49223,6917.853,95.437,541.885,537.552,0.0
51472.0,STARLINK-3415,PAYLOAD,2022-12-16 04:58:19,15.08837944,0.0003345,53.2154,174.0374,52.791,307.3387,2.6512e-05,1.33e-06,0.0,0 STARLINK-3415,1 51472U 22010S   22350.20716534  .00000133  00000-0  26512-4 0  9991,2 51472  53.2154 174.0374 0003345  52.7910 307.3387 15.08837944 49267,6917.887,95.438,542.066,537.438,0.0
51472.0,STARLINK-3415,PAYLOAD,2022-12-16 12:55:14,15.08840074,0.0003107,53.2151,172.5505,53.7594,306.3685,6.842000000000002e-06,-1.8e-06,0.0,0 STARLINK-3415,1 51472U 22010S   22350.53836327 -.00000180  00000-0  68420-5 0  9998,2 51472  53.2151 172.5505 0003107  53.7594 306.3685 15.08840074 48816,6917.88,95.438,541.895,537.596,0.0
51472.0,STARLINK-3415,PAYLOAD,2022-12-16 20:52:10,15.08843808,0.0003129,53.2154,171.0636,54.8539,305.2746,5.4802e-05,5.84e-06,0.0,0 STARLINK-3415,1 51472U 22010S   22350.86956108  .00000584  00000-0  54802-4 0  9999,2 51472  53.2154 171.0636 0003129  54.8539 305.2746 15.08843808 48862,6917.869000000002,95.437,541.898,537.569,0.0
51472.0,STARLINK-3415,PAYLOAD,2022-12-17 04:49:05,15.08844892,0.0003142,53.2156,169.5768,55.6252,304.5037,6.6318e-05,7.67e-06,0.0,0 STARLINK-3415,1 51472U 22010S   22351.20076012  .00000767  00000-0  66318-4 0  9993,2 51472  53.2156 169.5768 0003142  55.6252 304.5037 15.08844892 49419,6917.865,95.437,541.904,537.557,0.0
51472.0,STARLINK-3415,PAYLOAD,2022-12-17 12:46:01,15.08846098,0.0003123999999999,53.2157,168.09,56.6785,303.4506,7.9664e-05,9.8e-06,0.0,0 STARLINK-3415,1 51472U 22010S   22351.53195824  .00000980  00000-0  79664-4 0  9997,2 51472  53.2157 168.0900 0003124  56.6785 303.4506 15.08846098 48962,6917.861999999999,95.437,541.888,537.566,0.0
51472.0,STARLINK-3415,PAYLOAD,2022-12-17 20:42:56,15.08847849,0.0003191,53.2152,166.6031,55.471,304.6583,0.00011883,1.603e-05,0.0,0 STARLINK-3415,1 51472U 22010S   22351.86315647  .00001603  00000-0  11883-3 0  9991,2 51472  53.2152 166.6031 0003191  55.4710 304.6583 15.08847849 49015,6917.856,95.437,541.929,537.514,0.0
51472.0,STARLINK-3415,PAYLOAD,2022-12-18 04:39:52,15.08830467,0.0002633,53.2173,165.1159,55.6815,304.4426,-8.5264e-05,-1.645e-05,0.0,0 STARLINK-3415,1 51472U 22010S   22352.19436237 -.00001645  00000-0 -85264-4 0  9990,2 51472  53.2173 165.1159 0002633  55.6815 304.4426 15.08830467 49563,6917.91,95.438,541.596,537.953,0.0
51472.0,STARLINK-3415,PAYLOAD,2022-12-18 12:36:49,15.0882915,0.0003168999999999,53.2159,163.6296,59.2884,300.842,-5.704100000000001e-05,-1.196e-05,0.0,0 STARLINK-3415,1 51472U 22010S   22352.52556797 -.00001196  00000-0 -57041-4 0  9994,2 51472  53.2159 163.6296 0003169  59.2884 300.8420 15.08829150 49115,6917.9140000000025,95.438,541.971,537.586,0.0
51472.0,STARLINK-3415,PAYLOAD,2022-12-18 18:58:21,15.08830304,0.0003149,53.2156,162.4403,60.26600000000001,299.8645,-5.885800000000001e-05,-1.225e-05,0.0,0 STARLINK-3415,1 51472U 22010S   22352.79052886 -.00001225  00000-0 -58858-4 0  9993,2 51472  53.2156 162.4403 0003149  60.2660 299.8645 15.08830304 49154,6917.91,95.438,541.953,537.597,0.0
51472.0,STARLINK-3415,PAYLOAD,2022-12-19 04:30:40,15.08833134,0.0003094,53.2152,160.6558,59.9347,300.1951,5.176e-06,-2.06e-06,0.0,0 STARLINK-3415,1 51472U 22010S   22353.18797001 -.00000206  00000-0  51760-5 0  9995,2 51472  53.2152 160.6558 0003094  59.9347 300.1951 15.08833134 49214,6917.901,95.438,541.9069999999998,537.626,0.0
51472.0,STARLINK-3415,PAYLOAD,2022-12-19 20:24:31,15.08840815,0.0003129,53.2147,157.6817,61.2039,298.9267,0.0001319,1.811e-05,0.0,0 STARLINK-3415,1 51472U 22010S   22353.85036974  .00001811  00000-0  13190-3 0  9999,2 51472  53.2147 157.6817 0003129  61.2039 298.9267 15.08840815 49314,6917.878000000002,95.438,541.908,537.578,0.0
51472.0,STARLINK-3415,PAYLOAD,2022-12-19 23:35:18,15.088397199999998,0.0003109,53.214,157.0869,61.2322,298.8982,0.0002284,3.348e-05,0.0,0 STARLINK-3415,1 51472U 22010S   22353.98285114  .00003348  00000-0  22840-3 0  9994,2 51472  53.2140 157.0869 0003109  61.2322 298.8982 15.08839720 49834,6917.880999999999,95.438,541.8969999999998,537.595,0.0
51472.0,STARLINK-3415,PAYLOAD,2022-12-20 10:43:00,15.08833988,0.0003126,53.214,155.0054,62.5982,297.5328,0.00017142,2.44e-05,0.0,0 STARLINK-3415,1 51472U 22010S   22354.44653693  .00002440  00000-0  17142-3 0  9998,2 51472  53.2140 155.0054 0003126  62.5982 297.5328 15.08833988 49901,6917.899,95.438,541.9259999999998,537.601,0.0
51472.0,STARLINK-3415,PAYLOAD,2022-12-21 04:12:15,15.08844461,0.0003101,53.2141,151.7344,63.7594,296.3717,0.00031115,4.668e-05,0.0,0 STARLINK-3415,1 51472U 22010S   22355.17517538  .00004668  00000-0  31115-3 0  9996,2 51472  53.2141 151.7344 0003101  63.7594 296.3717 15.08844461 49516,6917.8669999999975,95.437,541.877,537.587,0.0
51472.0,STARLINK-3415,PAYLOAD,2022-12-21 16:55:19,15.08853912,0.0003115,53.2142,149.3553,64.5723,295.5591,0.00038621,5.866e-05,0.0,0 STARLINK-3415,1 51472U 22010S   22355.70509043  .00005866  00000-0  38621-3 0  9997,2 51472  53.2142 149.3553 0003115  64.5723 295.5591 15.08853912 50097,6917.8380000000025,95.437,541.8580000000002,537.548,0.0
